BEIDOU-2 IGSO-1 (C06)   
1 36828U 10036A   26086.63883915 -.00000150  00000+0  00000+0 0  9997
2 36828  54.2909 163.6978 0057461 222.7538 133.1758  1.00295665 57273
BEIDOU-2 G4 (C04)       
1 37210U 10057A   26094.23030840 -.00000111  00000+0  00000+0 0  9999
2 37210   3.4642  69.3636 0007321 215.4986 150.6018  1.00271510 56554
BEIDOU-2 IGSO-2 (C07)   
1 37256U 10068A   26086.44836399 -.00000175  00000+0  00000+0 0  9998
2 37256  47.6922 272.8379 0048070 212.2935 326.6285  1.00251076 55976
BEIDOU-2 IGSO-3 (C08)   
1 37384U 11013A   26085.80669791 -.00000176  00000+0  00000+0 0  9991
2 37384  62.3016  40.9294 0034198 190.2272 350.7783  1.00287208 54832
BEIDOU-2 IGSO-4 (C09)   
1 37763U 11038A   26087.66258249 -.00000109  00000+0  00000+0 0  9993
2 37763  54.5871 166.4040 0156581 231.4212 120.2889  1.00260433 53838
BEIDOU-2 IGSO-5 (C10)   
1 37948U 11073A   26093.97039089 -.00000174  00000+0  00000+0 0  9999
2 37948  47.8149 272.4589 0109539 220.8427 142.8662  1.00265759 52398
BEIDOU-2 G5 (C05)       
1 38091U 12008A   26094.18789986  .00000057  00000+0  00000+0 0  9999
2 38091   3.3901  70.1219 0013251 260.9431 347.8598  1.00275805 51622
BEIDOU-2 M3 (C11)       
1 38250U 12018A   26093.55159720 -.00000065  00000+0  00000+0 0  9994
2 38250  55.8213 307.3906 0020359 279.2572  80.5424  1.86229880 94555
BEIDOU-2 M4 (C12)       
1 38251U 12018B   26093.48379449 -.00000064  00000+0  00000+0 0  9998
2 38251  55.7217 306.6127 0011490 286.3121  73.5904  1.86229504 94559
BEIDOU-2 M6 (C14)       
1 38775U 12050B   26093.19377053 -.00000044  00000+0  00000+0 0  9990
2 38775  56.4810  65.3724 0014446 345.0815  14.8482  1.86231006 91912
BEIDOU-2 G6 (C02)       
1 38953U 12059A   26094.05027265 -.00000175  00000+0  00000+0 0  9995
2 38953   4.2347  74.3032 0010894 311.1806 269.0380  1.00271777 49161
BEIDOU-3S IGSO-1S (C31) 
1 40549U 15019A   26082.29086919 -.00000163  00000+0  00000+0 0  9999
2 40549  49.3559 296.4949 0036261 190.1236 255.1180  1.00268843 40213
BEIDOU-3S M2S (C58)     
1 40748U 15037A   26093.68736214 -.00000064  00000+0  00000+0 0  9995
2 40748  54.9362 304.6107 0007866 276.2364  83.6984  1.86232009 72730
BEIDOU-3S M1S (C57)     
1 40749U 15037B   26092.83012273 -.00000064  00000+0  00000+0 0  9994
2 40749  54.9337 304.6286 0004681  43.1716 316.8924  1.86254951 72729
BEIDOU-3S IGSO-2S (C56) 
1 40938U 15053A   26093.91039947 -.00000148  00000+0  00000+0 0  9992
2 40938  49.3401 259.6611 0062363 189.8342 167.2762  1.00277577 38606
BEIDOU-2 IGSO-6 (C13)   
1 41434U 16021A   26092.81344461 -.00000170  00000+0  00000+0 0  9993
2 41434  60.1276  38.7875 0058842 233.3821 307.4549  1.00273243 36729
BEIDOU-2 G7 (C03)       
1 41586U 16037A   26093.98414572 -.00000354  00000+0  00000+0 0  9992
2 41586   1.5375  68.5645 0007309 348.3899 240.0809  1.00278098  6143
BEIDOU-3 M1 (C19)       
1 43001U 17069A   26092.95919512 -.00000043  00000+0  00000+0 0  9997
2 43001  56.6289  65.5602 0012522 314.0342  45.8356  1.86231220 57209
BEIDOU-3 M2 (C20)       
1 43002U 17069B   26092.36080163 -.00000041  00000+0  00000+0 0  9992
2 43002  56.6272  65.6158 0010135 333.3240  26.5981  1.86230560 57181
BEIDOU-3 M7 (C27)       
1 43107U 18003A   26092.63934671 -.00000065  00000+0  00000+0 0  9995
2 43107  54.3956 304.9489 0005115  76.5007 283.5840  1.86232359 55945
BEIDOU-3 M8 (C28)       
1 43108U 18003B   26092.58514063 -.00000065  00000+0  00000+0 0  9999
2 43108  54.3877 304.9330 0002485 292.7810  67.2205  1.86230868 55950
BEIDOU-3 M4 (C22)       
1 43207U 18018A   26093.02746557 -.00000043  00000+0  00000+0 0  9996
2 43207  56.5879  65.6246 0007534 355.4518   4.5142  1.86231194 55345
BEIDOU-3 M3 (C21)       
1 43208U 18018B   26093.09390907 -.00000043  00000+0  00000+0 0  9998
2 43208  56.5874  65.6263 0010182 324.6515  35.2538  1.86231146 55345
BEIDOU-3 M9 (C29)       
1 43245U 18029A   26093.84830561 -.00000062  00000+0  00000+0 0  9990
2 43245  54.2613 302.5478 0001013  54.6970 305.3327  1.86228380 54512
BEIDOU-3 M10 (C30)      
1 43246U 18029B   26093.78304414 -.00000063  00000+0  00000+0 0  9998
2 43246  54.2588 302.5771 0005117  31.2975 328.7535  1.86229032 54497
BEIDOU-2 IGSO-7 (C16)   
1 43539U 18057A   26086.63100478 -.00000168  00000+0  00000+0 0  9990
2 43539  55.1838 163.7722 0101772 237.2605 124.1194  1.00275701 28316
BEIDOU-3 M5 (C23)       
1 43581U 18062A   26092.39635532  .00000008  00000+0  00000+0 0  9999
2 43581  54.0850 184.8810 0003510 295.8623  64.1328  1.86224644 52221
BEIDOU-3 M6 (C24)       
1 43582U 18062B   26093.33335537  .00000014  00000+0  00000+0 0  9994
2 43582  54.0846 184.8383 0005216  31.2890 328.7793  1.86227743 52245
BEIDOU-3 M12 (C26)      
1 43602U 18067A   26089.51302426 -.00000026  00000+0  00000+0 0  9992
2 43602  54.1801 183.7084 0008139  37.0616 323.0089  1.86227710 51657
BEIDOU-3 M11 (C25)      
1 43603U 18067B   26093.40660892  .00000015  00000+0  00000+0 0  9997
2 43603  54.1769 183.5400 0004642  26.6069 333.4575  1.86227234 51759
BEIDOU-3 M13 (C32)      
1 43622U 18072A   26092.28812523 -.00000042  00000+0  00000+0 0  9990
2 43622  56.5605  65.1621 0009163 313.4238  46.4741  1.86230927 51246
BEIDOU-3 M14 (C33)      
1 43623U 18072B   26093.22747990 -.00000044  00000+0  00000+0 0  9993
2 43623  56.5633  65.1252 0006906 335.0093  24.9295  1.86231085 51251
BEIDOU-3 M16 (C35)      
1 43647U 18078A   26093.38397449 -.00000063  00000+0  00000+0 0  9993
2 43647  54.1581 302.6080 0008390  35.6309 324.4467  1.86232420 50761
BEIDOU-3 M15 (C34)      
1 43648U 18078B   26094.05023102 -.00000062  00000+0  00000+0 0  9990
2 43648  54.1526 302.5850 0005412  45.1778 314.8859  1.86232180 50797
BEIDOU-3 G1 (C59)       
1 43683U 18085A   26091.86294493 -.00000284  00000+0  00000+0 0  9992
2 43683   2.8820  99.4564 0002058  12.9832 168.3736  1.00268589 27296
BEIDOU-3 M17 (C36)      
1 43706U 18093A   26093.17930544  .00000013  00000+0  00000+0 0  9996
2 43706  54.1686 184.8411 0008074 293.4644  95.1929  1.86228537 50147
BEIDOU-3 M18 (C37)      
1 43707U 18093B   26091.38824043 -.00000003  00000+0  00000+0 0  9994
2 43707  54.1693 184.8940 0006484 331.1835  28.8049  1.86226571 50106
BEIDOU-3 IGSO-1 (C38)   
1 44204U 19023A   26090.65189120 -.00000226  00000+0  00000+0 0  9997
2 44204  58.5926  38.4466 0025189 236.5952 266.8923  1.00262964  6438
BEIDOU-2 G8 (C01)       
1 44231U 19027A   26094.23586623 -.00000246  00000+0  00000+0 0  9990
2 44231   1.4715  74.3130 0011573 276.0276  71.6069  1.00275762 25331
BEIDOU-3 IGSO-2 (C39)   
1 44337U 19035A   26086.82285878 -.00000161  00000+0  00000+0 0  9996
2 44337  55.2326 159.5780 0039045 213.6954 226.2541  1.00291912 24858
BEIDOU-3 M24 (C46)      
1 44542U 19061A   26092.53179473  .00000009  00000+0  00000+0 0  9991
2 44542  54.3964 185.2791 0008187  13.7537 346.3000  1.86228823 44380
BEIDOU-3 M23 (C45)      
1 44543U 19061B   26092.15889837  .00000005  00000+0  00000+0 0  9998
2 44543  54.3946 185.2604 0004867 359.4431  22.6796  1.86227494 44387
BEIDOU-3 IGSO-3 (C40)   
1 44709U 19073A   26092.92237817 -.00000182  00000+0  00000+0 0  9992
2 44709  54.9314 281.7081 0041365 188.5337 171.3411  1.00260005 23707
BEIDOU-3 M22 (C44)      
1 44793U 19078A   26093.98158090 -.00000063  00000+0  00000+0 0  9990
2 44793  54.0035 302.4378 0007546  42.8010 317.2773  1.86227146 43262
BEIDOU-3 M21 (C43)      
1 44794U 19078B   26093.58474245 -.00000063  00000+0  00000+0 0  9990
2 44794  53.9768 302.4147 0005354  38.8071 321.2518  1.86227660 43268
BEIDOU-3 M19 (C41)      
1 44864U 19090A   26092.21155124 -.00000041  00000+0  00000+0 0  9999
2 44864  56.4950  65.2997 0020338 293.9443  62.1866  1.86231371 42811
BEIDOU-3 M20 (C42)      
1 44865U 19090B   26092.34794457 -.00000042  00000+0  00000+0 0  9993
2 44865  56.4965  65.3296 0017833 305.7575 231.4249  1.86231443 42800
BEIDOU-3 G2 (C60)       
1 45344U 20017A   26094.12081959 -.00000140  00000+0  00000+0 0  9990
2 45344   2.7162  46.1345 0002817 334.6591 295.1846  1.00272125 22517
BEIDOU-3 G3 (C61)       
1 45807U 20040A   26094.05555934 -.00000353  00000+0  00000+0 0  9997
2 45807   2.2659  67.2230 0004504 326.6647 289.0502  1.00270244 21321
BEIDOU-3 G4 (C62)       
1 56564U 23066A   26087.21580603 -.00000301  00000+0  00000+0 0  9994
2 56564   0.6066 314.6390 0002289 165.2828 283.4567  1.00272952 10582
BEIDOU-3 M28 (C50)      
1 58654U 23207A   26092.05116730 -.00000043  00000+0  00000+0 0  9990
2 58654  55.6877  64.8699 0004938 313.2042  46.7297  1.86229790 15420
BEIDOU-3 M26 (C48)      
1 58655U 23207B   26089.16388542 -.00000019  00000+0  00000+0 0  9994
2 58655  55.6870  64.9536 0005568 296.6294  63.3008  1.86229633 15351
BEIDOU-3 M25 (C47)      
1 61186U 24168B   26094.08597944 -.00000064  00000+0  00000+0 0  9999
2 61186  54.5395 304.8170 0003725 321.6272 215.3942  1.86230346 10402
BEIDOU-3 M27 (C49)      
1 61187U 24168C   26093.88644255 -.00000064  00000+0  00000+0 0  9995
2 61187  54.5346 304.8072 0002876  31.7599 146.4859  1.86230456  7877
